NORAD_CAT_ID,OBJECT_NAME,OBJECT_TYPE,EPOCH,MEAN_MOTION,ECCENTRICITY,INCLINATION,RA_OF_ASC_NODE,ARG_OF_PERICENTER,MEAN_ANOMALY,BSTAR,MEAN_MOTION_DOT,MEAN_MOTION_DDOT,TLE_LINE0,TLE_LINE1,TLE_LINE2,SEMIMAJOR_AXIS,PERIOD,APOGEE,PERIGEE,DECAYED
51463.0,STARLINK-3419,PAYLOAD,2022-06-06 14:00:01,15.08850871,0.0001835,53.2178,318.7349,52.4354,340.2637,-0.002137,-0.00034148,0.0,0 STARLINK-3419,1 51463U 22010H   22157.58334491 -.00034148  00000-0 -21370-2 0  9995,2 51463  53.2178 318.7349 0001835  52.4354 340.2637 15.08850871 20125,6917.847,95.437,540.982,538.443,0.0
51463.0,STARLINK-3419,PAYLOAD,2022-06-06 20:12:55,15.08847661,0.0001881,53.2192,317.5725,56.8979,303.2194,-9.5806e-05,-1.813e-05,0.0,0 STARLINK-3419,1 51463U 22010H   22157.84230829 -.00001813  00000-0 -95806-4 0  9994,2 51463  53.2192 317.5725 0001881  56.8979 303.2194 15.08847661 20162,6917.857,95.437,541.023,538.4209999999998,0.0
51463.0,STARLINK-3419,PAYLOAD,2022-06-07 12:06:46,15.08841869,0.000189,53.2193,314.5989,44.81,315.3044,1.8606e-05,8e-08,0.0,0 STARLINK-3419,1 51463U 22010H   22158.50470780  .00000008  00000-0  18606-4 0  9996,2 51463  53.2193 314.5989 0001890  44.8100 315.3044 15.08841869 19514,6917.875,95.437,541.047,538.432,0.0
51463.0,STARLINK-3419,PAYLOAD,2022-06-07 20:03:41,15.08849133,0.0001874,53.2191,313.1116,48.1653,311.9499,7.5491e-05,9.14e-06,0.0,0 STARLINK-3419,1 51463U 22010H   22158.83589971  .00000914  00000-0  75491-4 0  9996,2 51463  53.2191 313.1116 0001874  48.1653 311.9499 15.08849133 19564,6917.852,95.437,541.014,538.4209999999998,0.0
51463.0,STARLINK-3419,PAYLOAD,2022-06-08 10:22:10,15.08842863,0.0001844,53.2189,310.4357,47.7538,312.361,-3.008e-05,-7.67e-06,0.0,0 STARLINK-3419,1 51463U 22010H   22159.43206560 -.00000767  00000-0 -30080-4 0  9996,2 51463  53.2189 310.4357 0001844  47.7538 312.3610 15.08842863 20400,6917.871999999999,95.437,541.012,538.461,0.0
51463.0,STARLINK-3419,PAYLOAD,2022-06-08 19:54:28,15.08845546,0.000191,53.2191,308.651,51.8387,308.2777,2.5151e-05,1.12e-06,0.0,0 STARLINK-3419,1 51463U 22010H   22159.82950079  .00000112  00000-0  25151-4 0  9995,2 51463  53.2191 308.6510 0001910  51.8387 308.2777 15.08845546 19716,6917.863,95.437,541.05,538.4069999999998,0.0
51463.0,STARLINK-3419,PAYLOAD,2022-06-09 08:37:34,15.0883461,0.0001862,53.219,306.2724,51.5919,308.524,-1.3769e-05,-5.07e-06,0.0,0 STARLINK-3419,1 51463U 22010H   22160.35942954 -.00000507  00000-0 -13769-4 0  9990,2 51463  53.2190 306.2724 0001862  51.5919 308.5240 15.08834610 19796,6917.897,95.438,541.05,538.474,0.0
51463.0,STARLINK-3419,PAYLOAD,2022-06-09 16:34:31,15.08829693,0.0001876,53.2194,304.7855,55.3894,304.7275,-0.0001083,-2.011e-05,0.0,0 STARLINK-3419,1 51463U 22010H   22160.69063847 -.00002011  00000-0 -10830-3 0  9999,2 51463  53.2194 304.7855 0001876  55.3894 304.7275 15.08829693 20598,6917.9119999999975,95.438,541.075,538.479,0.0
51463.0,STARLINK-3419,PAYLOAD,2022-06-10 13:14:32,15.08827735,0.0001811,53.2198,300.9202,59.2428,300.8743,-7.2964e-05,-1.449e-05,0.0,0 STARLINK-3419,1 51463U 22010H   22161.55176523 -.00001449  00000-0 -72964-4 0  9992,2 51463  53.2198 300.9202 0001811  59.2428 300.8743 15.08827735 19973,6917.918000000002,95.438,541.036,538.53,0.0
51463.0,STARLINK-3419,PAYLOAD,2022-06-10 16:25:18,15.0883118,0.0001865,53.2191,300.3254,51.3849,308.731,-4.2863e-05,-9.7e-06,0.0,0 STARLINK-3419,1 51463U 22010H   22161.68424316 -.00000970  00000-0 -42863-4 0  9995,2 51463  53.2191 300.3254 0001865  51.3849 308.7310 15.08831180 19994,6917.906999999997,95.438,541.063,538.482,0.0
51463.0,STARLINK-3419,PAYLOAD,2022-06-11 01:57:37,15.08832413,0.0001897,53.2191,298.5406,49.8723,310.2435,2.3984e-05,9.4e-07,0.0,0 STARLINK-3419,1 51463U 22010H   22162.08168244  .00000094  00000-0  23984-4 0  9993,2 51463  53.2191 298.5406 0001897  49.8723 310.2435 15.08832413 20807,6917.904,95.438,541.081,538.456,0.0
51463.0,STARLINK-3419,PAYLOAD,2022-06-11 16:16:05,15.08833096,0.0001871,53.219,295.8649,51.4397,308.6763,0.00018511,2.659e-05,0.0,0 STARLINK-3419,1 51463U 22010H   22162.67783933  .00002659  00000-0  18511-3 0  9994,2 51463  53.2190 295.8649 0001871  51.4397 308.6763 15.08833096 20143,6917.901,95.438,541.061,538.472,0.0
51463.0,STARLINK-3419,PAYLOAD,2022-06-12 12:56:06,15.08833336,0.0001878,53.2189,291.999,52.4739,307.6424,5.5497e-05,5.95e-06,0.0,0 STARLINK-3419,1 51463U 22010H   22163.53896976  .00000595  00000-0  55497-4 0  9994,2 51463  53.2189 291.9990 0001878  52.4739 307.6424 15.08833336 21023,6917.901,95.438,541.065,538.467,0.0
51463.0,STARLINK-3419,PAYLOAD,2022-06-12 16:06:53,15.08834917,0.0001884,53.219,291.4043,52.3956,307.7207,6.594600000000001e-05,7.61e-06,0.0,0 STARLINK-3419,1 51463U 22010H   22163.67144894  .00000761  00000-0  65946-4 0  9999,2 51463  53.2190 291.4043 0001884  52.3956 307.7207 15.08834917 20290,6917.896,95.438,541.064,538.4580000000002,0.0
51463.0,STARLINK-3419,PAYLOAD,2022-06-13 01:39:11,15.08844314,0.000189,53.2189,289.6203,52.6984,307.418,9.5803e-05,1.237e-05,0.0,0 STARLINK-3419,1 51463U 22010H   22164.06888217  .00001237  00000-0  95803-4 0  9991,2 51463  53.2189 289.6203 0001890  52.6984 307.4180 15.08844314 21106,6917.8669999999975,95.437,541.04,538.425,0.0
51463.0,STARLINK-3419,PAYLOAD,2022-06-13 08:00:43,15.08853169,0.0001893,53.2187,288.4308,51.4482,308.6679,0.00012711,1.736e-05,0.0,0 STARLINK-3419,1 51463U 22010H   22164.33383437  .00001736  00000-0  12711-3 0  9995,2 51463  53.2187 288.4308 0001893  51.4482 308.6679 15.08853169 21148,6917.84,95.437,541.015,538.396,0.0
51463.0,STARLINK-3419,PAYLOAD,2022-06-13 14:22:15,15.08858569,0.0001844,53.2187,287.2415,51.6479,308.4679,0.00016666,2.367e-05,0.0,0 STARLINK-3419,1 51463U 22010H   22164.59878724  .00002367  00000-0  16666-3 0  9995,2 51463  53.2187 287.2415 0001844  51.6479 308.4679 15.08858569 20436,6917.824000000001,95.436,540.964,538.413,0.0
51463.0,STARLINK-3419,PAYLOAD,2022-06-14 14:13:02,15.08844665,0.0001799,53.2188,282.7816,51.1791,308.9362,8.543799999999999e-05,1.072e-05,0.0,0 STARLINK-3419,1 51463U 22010H   22165.59239358  .00001072  00000-0  85438-4 0  9996,2 51463  53.2188 282.7816 0001799  51.1791 308.9362 15.08844665 21339,6917.866,95.437,540.976,538.487,0.0
51463.0,STARLINK-3419,PAYLOAD,2022-06-15 10:53:04,15.08840731,0.0001805,53.2189,278.9154,54.2478,305.8682,-0.00022581,-3.88e-05,0.0,0 STARLINK-3419,1 51463U 22010H   22166.45352510 -.00003880  00000-0 -22581-3 0  9998,2 51463  53.2189 278.9154 0001805  54.2478 305.8682 15.08840731 21461,6917.878000000002,95.438,540.992,538.494,0.0
51463.0,STARLINK-3419,PAYLOAD,2022-06-19 11:51:36,15.08837808,0.0002057,53.2195,260.7742,46.2579,313.8584,-6.6367e-05,-1.344e-05,0.0,0 STARLINK-3419,1 51463U 22010H   22170.49417399 -.00001344  00000-0 -66367-4 0  9998,2 51463  53.2195 260.7742 0002057  46.2579 313.8584 15.08837808 21329,6917.887,95.438,541.175,538.3290000000002,0.0
51463.0,STARLINK-3419,PAYLOAD,2022-06-19 15:02:23,15.08834407,0.0002008,53.2195,260.1799,45.4685,314.6471,-9.3303e-05,-1.773e-05,0.0,0 STARLINK-3419,1 51463U 22010H   22170.62665717 -.00001773  00000-0 -93303-4 0  9998,2 51463  53.2195 260.1799 0002008  45.4685 314.6471 15.08834407 22091,6917.897,95.438,541.1519999999998,538.373,0.0
51463.0,STARLINK-3419,PAYLOAD,2022-06-19 18:13:09,15.08835775,0.0002016,53.2201,259.5855,45.015,315.1005,-8.0713e-05,-1.572e-05,0.0,0 STARLINK-3419,1 51463U 22010H   22170.75913615 -.00001572  00000-0 -80713-4 0  9993,2 51463  53.2201 259.5855 0002016  45.0150 315.1005 15.08835775 21363,6917.893,95.438,541.153,538.364,0.0
51463.0,STARLINK-3419,PAYLOAD,2022-06-19 22:59:18,15.08838045,0.0001717,53.2196,258.6945,47.7539,312.3598,-3.5607e-05,-8.55e-06,0.0,0 STARLINK-3419,1 51463U 22010H   22170.95785212 -.00000855  00000-0 -35607-4 0  9990,2 51463  53.2196 258.6945 0001717  47.7539 312.3598 15.08838045 22149,6917.886,95.438,540.939,538.564,0.0
51463.0,STARLINK-3419,PAYLOAD,2022-06-20 11:42:22,15.08886313,0.0001568,53.2187,256.3156,36.7411,323.3689,-0.00050587,-8.340000000000001e-05,0.0,0 STARLINK-3419,1 51463U 22010H   22171.48776279 -.00008340  00000-0 -50587-3 0  9992,2 51463  53.2187 256.3156 0001568  36.7411 323.3689 15.08886313 21478,6917.739000000001,95.435,540.689,538.519,0.0
51463.0,STARLINK-3419,PAYLOAD,2022-06-20 18:03:55,15.08845998,0.0001679,53.2197,255.1251,46.8908,313.2224,9.1237e-05,1.165e-05,0.0,0 STARLINK-3419,1 51463U 22010H   22171.75272186  .00001165  00000-0  91237-4 0  9994,2 51463  53.2197 255.1251 0001679  46.8908 313.2224 15.08845998 22263,6917.861999999999,95.437,540.889,538.566,0.0
51463.0,STARLINK-3419,PAYLOAD,2022-06-21 05:11:37,15.08834613,0.0001732,53.2185,253.045,48.5241,311.59,0.00010119,1.323e-05,0.0,0 STARLINK-3419,1 51463U 22010H   22172.21640825  .00001323  00000-0  10119-3 0  9990,2 51463  53.2185 253.0450 0001732  48.5241 311.5900 15.08834613 22339,6917.897,95.438,540.96,538.564,0.0
51463.0,STARLINK-3419,PAYLOAD,2022-06-21 11:33:10,15.08837729,0.0001663,53.2179,251.8561,46.7216,313.3915,0.00012383,1.683e-05,0.0,0 STARLINK-3419,1 51463U 22010H   22172.48136589  .00001683  00000-0  12383-3 0  9990,2 51463  53.2179 251.8561 0001663  46.7216 313.3915 15.08837729 21624,6917.887,95.438,540.903,538.602,0.0
51463.0,STARLINK-3419,PAYLOAD,2022-06-21 14:43:56,15.08839009,0.0001689,53.2181,251.2616,46.5099,313.6034,0.00012894,1.765e-05,0.0,0 STARLINK-3419,1 51463U 22010H   22172.61384518  .00001765  00000-0  12894-3 0  9990,2 51463  53.2181 251.2616 0001689  46.5099 313.6034 15.08839009 21647,6917.8830000000025,95.438,540.9169999999998,538.58,0.0
51463.0,STARLINK-3419,PAYLOAD,2022-06-22 11:23:57,15.0884326,0.0001806,53.2179,247.3968,46.7614,313.3529,-3.6217e-06,-3.46e-06,0.0,0 STARLINK-3419,1 51463U 22010H   22173.47496623 -.00000346  00000-0 -36217-5 0  9999,2 51463  53.2179 247.3968 0001806  46.7614 313.3529 15.08843260 22524,6917.87,95.437,540.985,538.486,0.0
